STARLINK-36121          
1 66940U 25286R   25357.91668981 -.01963698  00000+0 -20725-1 0  9998
2 66940  53.1590 354.5002 0001437  93.3624  63.9689 15.66747517  3789
STARLINK-36088          
1 66941U 25286S   25357.91668981 -.01908639  00000+0 -18714-1 0  9998
2 66941  53.1591 354.4886 0001443  89.3248  73.6004 15.68444847  3785
STARLINK-36100          
1 66942U 25286T   25357.91668981 -.01955074  00000+0 -20627-1 0  9990
2 66942  53.1589 354.4962 0001371 101.3381  57.9116 15.66741861  3717
STARLINK-36109          
1 66943U 25286U   25357.91668981 -.01958915  00000+0 -20671-1 0  9997
2 66943  53.1591 354.4921 0001275  96.4666  64.6981 15.66745421  3710
STARLINK-36112          
1 66944U 25286V   25357.91668981 -.01955518  00000+0 -20629-1 0  9997
2 66944  53.1590 354.4878 0001540  95.6942  67.3862 15.66743620  3788
STARLINK-36110          
1 66945U 25286W   25357.91668981 -.01956709  00000+0 -20645-1 0  9999
2 66945  53.1591 354.4839 0001453  92.5873  72.4133 15.66742820  3788
STARLINK-36115          
1 66946U 25286X   25357.91668981 -.01959572  00000+0 -20675-1 0  9994
2 66946  53.1590 354.4797 0001391  95.4678  71.4442 15.66747838  3783
STARLINK-36089          
1 66947U 25286Y   25357.91668981 -.01953753  00000+0 -20609-1 0  9997
2 66947  53.1592 354.4713 0001523  92.4105  78.3377 15.66742466  3788
STARLINK-36116          
1 66948U 25286Z   25357.91668981 -.01956207  00000+0 -20639-1 0  9998
2 66948  53.1592 354.4756 0001368  91.8889  76.9452 15.66742937  3786
STARLINK-36096          
1 66949U 25286AA  25357.91668981 -.01959245  00000+0 -20676-1 0  9995
2 66949  53.1592 354.4678 0001252  91.8449  80.8236 15.66743697  3782
STARLINK-36111          
1 66950U 25286AB  25357.91668981 -.01959240  00000+0 -20672-1 0  9998
2 66950  53.1593 354.4596 0001328  98.3235  78.1732 15.66747633  3788
STARLINK-35999          
1 66951U 25286AC  25357.91668981 -.01953433  00000+0 -20605-1 0  9993
2 66951  53.1591 354.4555 0001443  92.6199  85.7946 15.66743285  3786
