CCSDS_OMM_VERS = 2.0
CREATION_DATE  = 
ORIGINATOR     = 

OBJECT_NAME    = STARLINK-36121
OBJECT_ID      = 2025-286R
CENTER_NAME    = EARTH
REF_FRAME      = TEME
TIME_SYSTEM    = UTC
MEAN_ELEMENT_THEORY = SGP/SGP4

EPOCH          = 2025-12-23T22:00:01.999584
MEAN_MOTION    = 15.66747517
ECCENTRICITY   = .00014373
INCLINATION    = 53.1590
RA_OF_ASC_NODE = 354.5002
ARG_OF_PERICENTER = 93.3624
MEAN_ANOMALY   = 63.9689

EPHEMERIS_TYPE = 0
CLASSIFICATION_TYPE = U
NORAD_CAT_ID   = 66940
ELEMENT_SET_NO = 999
REV_AT_EPOCH   = 378
BSTAR          = -.20724533E-1
MEAN_MOTION_DOT = -.1963698E-1
MEAN_MOTION_DDOT = 0

CCSDS_OMM_VERS = 2.0
CREATION_DATE  = 
ORIGINATOR     = 

OBJECT_NAME    = STARLINK-36088
OBJECT_ID      = 2025-286S
CENTER_NAME    = EARTH
REF_FRAME      = TEME
TIME_SYSTEM    = UTC
MEAN_ELEMENT_THEORY = SGP/SGP4

EPOCH          = 2025-12-23T22:00:01.999584
MEAN_MOTION    = 15.68444847
ECCENTRICITY   = .0001443
INCLINATION    = 53.1591
RA_OF_ASC_NODE = 354.4886
ARG_OF_PERICENTER = 89.3248
MEAN_ANOMALY   = 73.6004

EPHEMERIS_TYPE = 0
CLASSIFICATION_TYPE = U
NORAD_CAT_ID   = 66941
ELEMENT_SET_NO = 999
REV_AT_EPOCH   = 378
BSTAR          = -.18713956E-1
MEAN_MOTION_DOT = -.1908639E-1
MEAN_MOTION_DDOT = 0

CCSDS_OMM_VERS = 2.0
CREATION_DATE  = 
ORIGINATOR     = 

OBJECT_NAME    = STARLINK-36100
OBJECT_ID      = 2025-286T
CENTER_NAME    = EARTH
REF_FRAME      = TEME
TIME_SYSTEM    = UTC
MEAN_ELEMENT_THEORY = SGP/SGP4

EPOCH          = 2025-12-23T22:00:01.999584
MEAN_MOTION    = 15.66741861
ECCENTRICITY   = .0001371
INCLINATION    = 53.1589
RA_OF_ASC_NODE = 354.4962
ARG_OF_PERICENTER = 101.3381
MEAN_ANOMALY   = 57.9116

EPHEMERIS_TYPE = 0
CLASSIFICATION_TYPE = U
NORAD_CAT_ID   = 66942
ELEMENT_SET_NO = 999
REV_AT_EPOCH   = 371
BSTAR          = -.20626727E-1
MEAN_MOTION_DOT = -.1955074E-1
MEAN_MOTION_DDOT = 0

CCSDS_OMM_VERS = 2.0
CREATION_DATE  = 
ORIGINATOR     = 

OBJECT_NAME    = STARLINK-36109
OBJECT_ID      = 2025-286U
CENTER_NAME    = EARTH
REF_FRAME      = TEME
TIME_SYSTEM    = UTC
MEAN_ELEMENT_THEORY = SGP/SGP4

EPOCH          = 2025-12-23T22:00:01.999584
MEAN_MOTION    = 15.66745421
ECCENTRICITY   = .00012753
INCLINATION    = 53.1591
RA_OF_ASC_NODE = 354.4921
ARG_OF_PERICENTER = 96.4666
MEAN_ANOMALY   = 64.6981

EPHEMERIS_TYPE = 0
CLASSIFICATION_TYPE = U
NORAD_CAT_ID   = 66943
ELEMENT_SET_NO = 999
REV_AT_EPOCH   = 371
BSTAR          = -.20670528E-1
MEAN_MOTION_DOT = -.1958915E-1
MEAN_MOTION_DDOT = 0

CCSDS_OMM_VERS = 2.0
CREATION_DATE  = 
ORIGINATOR     = 

OBJECT_NAME    = STARLINK-36112
OBJECT_ID      = 2025-286V
CENTER_NAME    = EARTH
REF_FRAME      = TEME
TIME_SYSTEM    = UTC
MEAN_ELEMENT_THEORY = SGP/SGP4

EPOCH          = 2025-12-23T22:00:01.999584
MEAN_MOTION    = 15.66743620
ECCENTRICITY   = .00015402
INCLINATION    = 53.1590
RA_OF_ASC_NODE = 354.4878
ARG_OF_PERICENTER = 95.6942
MEAN_ANOMALY   = 67.3862

EPHEMERIS_TYPE = 0
CLASSIFICATION_TYPE = U
NORAD_CAT_ID   = 66944
ELEMENT_SET_NO = 999
REV_AT_EPOCH   = 378
BSTAR          = -.20629021E-1
MEAN_MOTION_DOT = -.1955518E-1
MEAN_MOTION_DDOT = 0

CCSDS_OMM_VERS = 2.0
CREATION_DATE  = 
ORIGINATOR     = 

OBJECT_NAME    = STARLINK-36110
OBJECT_ID      = 2025-286W
CENTER_NAME    = EARTH
REF_FRAME      = TEME
TIME_SYSTEM    = UTC
MEAN_ELEMENT_THEORY = SGP/SGP4

EPOCH          = 2025-12-23T22:00:01.999584
MEAN_MOTION    = 15.66742820
ECCENTRICITY   = .00014535
INCLINATION    = 53.1591
RA_OF_ASC_NODE = 354.4839
ARG_OF_PERICENTER = 92.5873
MEAN_ANOMALY   = 72.4133

EPHEMERIS_TYPE = 0
CLASSIFICATION_TYPE = U
NORAD_CAT_ID   = 66945
ELEMENT_SET_NO = 999
REV_AT_EPOCH   = 378
BSTAR          = -.20644739E-1
MEAN_MOTION_DOT = -.1956709E-1
MEAN_MOTION_DDOT = 0

CCSDS_OMM_VERS = 2.0
CREATION_DATE  = 
ORIGINATOR     = 

OBJECT_NAME    = STARLINK-36115
OBJECT_ID      = 2025-286X
CENTER_NAME    = EARTH
REF_FRAME      = TEME
TIME_SYSTEM    = UTC
MEAN_ELEMENT_THEORY = SGP/SGP4

EPOCH          = 2025-12-23T22:00:01.999584
MEAN_MOTION    = 15.66747838
ECCENTRICITY   = .00013914
INCLINATION    = 53.1590
RA_OF_ASC_NODE = 354.4797
ARG_OF_PERICENTER = 95.4678
MEAN_ANOMALY   = 71.4442

EPHEMERIS_TYPE = 0
CLASSIFICATION_TYPE = U
NORAD_CAT_ID   = 66946
ELEMENT_SET_NO = 999
REV_AT_EPOCH   = 378
BSTAR          = -.20675307E-1
MEAN_MOTION_DOT = -.1959572E-1
MEAN_MOTION_DDOT = 0

CCSDS_OMM_VERS = 2.0
CREATION_DATE  = 
ORIGINATOR     = 

OBJECT_NAME    = STARLINK-36089
OBJECT_ID      = 2025-286Y
CENTER_NAME    = EARTH
REF_FRAME      = TEME
TIME_SYSTEM    = UTC
MEAN_ELEMENT_THEORY = SGP/SGP4

EPOCH          = 2025-12-23T22:00:01.999584
MEAN_MOTION    = 15.66742466
ECCENTRICITY   = .00015233
INCLINATION    = 53.1592
RA_OF_ASC_NODE = 354.4713
ARG_OF_PERICENTER = 92.4105
MEAN_ANOMALY   = 78.3377

EPHEMERIS_TYPE = 0
CLASSIFICATION_TYPE = U
NORAD_CAT_ID   = 66947
ELEMENT_SET_NO = 999
REV_AT_EPOCH   = 378
BSTAR          = -.20609057E-1
MEAN_MOTION_DOT = -.1953753E-1
MEAN_MOTION_DDOT = 0

CCSDS_OMM_VERS = 2.0
CREATION_DATE  = 
ORIGINATOR     = 

OBJECT_NAME    = STARLINK-36116
OBJECT_ID      = 2025-286Z
CENTER_NAME    = EARTH
REF_FRAME      = TEME
TIME_SYSTEM    = UTC
MEAN_ELEMENT_THEORY = SGP/SGP4

EPOCH          = 2025-12-23T22:00:01.999584
MEAN_MOTION    = 15.66742937
ECCENTRICITY   = .00013681
INCLINATION    = 53.1592
RA_OF_ASC_NODE = 354.4756
ARG_OF_PERICENTER = 91.8889
MEAN_ANOMALY   = 76.9452

EPHEMERIS_TYPE = 0
CLASSIFICATION_TYPE = U
NORAD_CAT_ID   = 66948
ELEMENT_SET_NO = 999
REV_AT_EPOCH   = 378
BSTAR          = -.20639404E-1
MEAN_MOTION_DOT = -.1956207E-1
MEAN_MOTION_DDOT = 0

CCSDS_OMM_VERS = 2.0
CREATION_DATE  = 
ORIGINATOR     = 

OBJECT_NAME    = STARLINK-36096
OBJECT_ID      = 2025-286AA
CENTER_NAME    = EARTH
REF_FRAME      = TEME
TIME_SYSTEM    = UTC
MEAN_ELEMENT_THEORY = SGP/SGP4

EPOCH          = 2025-12-23T22:00:01.999584
MEAN_MOTION    = 15.66743697
ECCENTRICITY   = .00012527
INCLINATION    = 53.1592
RA_OF_ASC_NODE = 354.4678
ARG_OF_PERICENTER = 91.8449
MEAN_ANOMALY   = 80.8236

EPHEMERIS_TYPE = 0
CLASSIFICATION_TYPE = U
NORAD_CAT_ID   = 66949
ELEMENT_SET_NO = 999
REV_AT_EPOCH   = 378
BSTAR          = -.20676134E-1
MEAN_MOTION_DOT = -.1959245E-1
MEAN_MOTION_DDOT = 0

CCSDS_OMM_VERS = 2.0
CREATION_DATE  = 
ORIGINATOR     = 

OBJECT_NAME    = STARLINK-36111
OBJECT_ID      = 2025-286AB
CENTER_NAME    = EARTH
REF_FRAME      = TEME
TIME_SYSTEM    = UTC
MEAN_ELEMENT_THEORY = SGP/SGP4

EPOCH          = 2025-12-23T22:00:01.999584
MEAN_MOTION    = 15.66747633
ECCENTRICITY   = .00013287
INCLINATION    = 53.1593
RA_OF_ASC_NODE = 354.4596
ARG_OF_PERICENTER = 98.3235
MEAN_ANOMALY   = 78.1732

EPHEMERIS_TYPE = 0
CLASSIFICATION_TYPE = U
NORAD_CAT_ID   = 66950
ELEMENT_SET_NO = 999
REV_AT_EPOCH   = 378
BSTAR          = -.20672081E-1
MEAN_MOTION_DOT = -.195924E-1
MEAN_MOTION_DDOT = 0

CCSDS_OMM_VERS = 2.0
CREATION_DATE  = 
ORIGINATOR     = 

OBJECT_NAME    = STARLINK-35999
OBJECT_ID      = 2025-286AC
CENTER_NAME    = EARTH
REF_FRAME      = TEME
TIME_SYSTEM    = UTC
MEAN_ELEMENT_THEORY = SGP/SGP4

EPOCH          = 2025-12-23T22:00:01.999584
MEAN_MOTION    = 15.66743285
ECCENTRICITY   = .00014435
INCLINATION    = 53.1591
RA_OF_ASC_NODE = 354.4555
ARG_OF_PERICENTER = 92.6199
MEAN_ANOMALY   = 85.7946

EPHEMERIS_TYPE = 0
CLASSIFICATION_TYPE = U
NORAD_CAT_ID   = 66951
ELEMENT_SET_NO = 999
REV_AT_EPOCH   = 378
BSTAR          = -.20605268E-1
MEAN_MOTION_DOT = -.1953433E-1
MEAN_MOTION_DDOT = 0

